{
  "norad_id": 60913,
  "name": "STARLINK-11273 [DTC]",
  "history": [
    {
      "epoch": "2026-03-28T14:05:30.825312Z",
      "apogee_km": 360.70279824984664,
      "perigee_km": 358.7178284313359,
      "latitude_deg": 2.839391333438253e-05,
      "longitude_deg": 0.6315129493577218,
      "height_km": 360.96118489953375,
      "semi_major_axis_km": 6737.8473133405905,
      "eccentricity": 0.0001473,
      "inclination_deg": 53.1577,
      "raan_deg": 38.0154,
      "arg_perigee_deg": 109.9025,
      "mean_anomaly_deg": 250.2152,
      "mean_motion_rev_day": 15.69715744
    },
    {
      "epoch": "2026-03-29T03:50:40.178400Z",
      "apogee_km": 360.2738899964079,
      "perigee_km": 359.17427106806554,
      "latitude_deg": -2.1632047531827513e-05,
      "longitude_deg": 150.95350526450045,
      "height_km": 360.8623034266633,
      "semi_major_axis_km": 6737.861080532237,
      "eccentricity": 8.16e-05,
      "inclination_deg": 53.1577,
      "raan_deg": 35.1912,
      "arg_perigee_deg": 114.0822,
      "mean_anomaly_deg": 246.0281,
      "mean_motion_rev_day": 15.69710933
    },
    {
      "epoch": "2026-03-30T01:14:15.744768Z",
      "apogee_km": 360.63157085219336,
      "perigee_km": 358.97134281642957,
      "latitude_deg": -4.153578020400445e-05,
      "longitude_deg": -175.21799031178406,
      "height_km": 360.5956016038513,
      "semi_major_axis_km": 6737.938456834311,
      "eccentricity": 0.0001232,
      "inclination_deg": 53.1579,
      "raan_deg": 30.7965,
      "arg_perigee_deg": 81.7496,
      "mean_anomaly_deg": 278.3661,
      "mean_motion_rev_day": 15.69683894
    },
    {
      "epoch": "2026-03-30T01:14:15.745632Z",
      "apogee_km": 360.6313687140391,
      "perigee_km": 358.9715449545838,
      "latitude_deg": 4.1720081157288254e-05,
      "longitude_deg": -175.21793189294686,
      "height_km": 360.5956201667224,
      "semi_major_axis_km": 6737.938456834311,
      "eccentricity": 0.00012317,
      "inclination_deg": 53.1579,
      "raan_deg": 30.7965,
      "arg_perigee_deg": 81.7497,
      "mean_anomaly_deg": 278.3661,
      "mean_motion_rev_day": 15.69683894
    },
    {
      "epoch": "2026-03-30T22:37:50.503296Z",
      "apogee_km": 360.55026105229535,
      "perigee_km": 358.9990590299203,
      "latitude_deg": -1.2089185017986609e-05,
      "longitude_deg": -141.3821733612036,
      "height_km": 360.2922899982576,
      "semi_major_axis_km": 6737.911660041107,
      "eccentricity": 0.00011511,
      "inclination_deg": 53.1565,
      "raan_deg": 26.4057,
      "arg_perigee_deg": 59.3156,
      "mean_anomaly_deg": 300.7975,
      "mean_motion_rev_day": 15.69693258
    },
    {
      "epoch": "2026-03-31T12:22:58.359936Z",
      "apogee_km": 360.1713592785618,
      "perigee_km": 359.2773798320486,
      "latitude_deg": -3.8937929221698675e-05,
      "longitude_deg": 8.944889363091255,
      "height_km": 361.0598685335541,
      "semi_major_axis_km": 6737.861369555305,
      "eccentricity": 6.634e-05,
      "inclination_deg": 53.1573,
      "raan_deg": 23.5803,
      "arg_perigee_deg": 160.3697,
      "mean_anomaly_deg": 199.7346,
      "mean_motion_rev_day": 15.69710832
    },
    {
      "epoch": "2026-04-01T05:11:30.772032Z",
      "apogee_km": 360.8675135215417,
      "perigee_km": 358.67365081278695,
      "latitude_deg": 1.9212675919474694e-06,
      "longitude_deg": 112.66554911300882,
      "height_km": 361.10840102495354,
      "semi_major_axis_km": 6737.907582167164,
      "eccentricity": 0.0001628,
      "inclination_deg": 53.1596,
      "raan_deg": 20.1263,
      "arg_perigee_deg": 112.7825,
      "mean_anomaly_deg": 247.3365,
      "mean_motion_rev_day": 15.69694683
    },
    {
      "epoch": "2026-04-02T19:23:34.118592Z",
      "apogee_km": 360.37789860216617,
      "perigee_km": 358.89154616020824,
      "latitude_deg": -2.096562702601107e-05,
      "longitude_deg": -109.7640668393955,
      "height_km": 360.5525544120332,
      "semi_major_axis_km": 6737.771722381187,
      "eccentricity": 0.0001103,
      "inclination_deg": 53.1586,
      "raan_deg": 12.2795,
      "arg_perigee_deg": 90.3327,
      "mean_anomaly_deg": 269.7817,
      "mean_motion_rev_day": 15.6974216
    },
    {
      "epoch": "2026-04-02T22:26:57.648480Z",
      "apogee_km": 360.56121385865754,
      "perigee_km": 358.90275478685726,
      "latitude_deg": 1.4448343315068265e-05,
      "longitude_deg": -156.36540904278658,
      "height_km": 359.8193758259016,
      "semi_major_axis_km": 6737.868984322758,
      "eccentricity": 0.00012307,
      "inclination_deg": 53.1585,
      "raan_deg": 11.6517,
      "arg_perigee_deg": 356.4143,
      "mean_anomaly_deg": 3.6866,
      "mean_motion_rev_day": 15.69708171
    },
    {
      "epoch": "2026-04-03T18:18:51.326784Z",
      "apogee_km": 361.03127388586836,
      "perigee_km": 358.4830023228369,
      "latitude_deg": 3.297026248298554e-05,
      "longitude_deg": -99.23677774541788,
      "height_km": 361.03345066091504,
      "semi_major_axis_km": 6737.894138104352,
      "eccentricity": 0.0001891,
      "inclination_deg": 53.157,
      "raan_deg": 7.5698,
      "arg_perigee_deg": 106.5993,
      "mean_anomaly_deg": 253.5233,
      "mean_motion_rev_day": 15.69699381
    },
    {
      "epoch": "2026-04-04T11:07:21.873504Z",
      "apogee_km": 360.34251058836344,
      "perigee_km": 359.05558390333863,
      "latitude_deg": 1.2002576376245471e-05,
      "longitude_deg": 4.495028215133746,
      "height_km": 360.556023788056,
      "semi_major_axis_km": 6737.836047245851,
      "eccentricity": 9.55e-05,
      "inclination_deg": 53.1586,
      "raan_deg": 4.1192,
      "arg_perigee_deg": 84.942,
      "mean_anomaly_deg": 275.1707,
      "mean_motion_rev_day": 15.69719681
    },
    {
      "epoch": "2026-04-04T23:20:50.782272Z",
      "apogee_km": 360.5667719547464,
      "perigee_km": 358.96342077189547,
      "latitude_deg": 1.1534858030196862e-05,
      "longitude_deg": 178.1114237214719,
      "height_km": 360.2783058236714,
      "semi_major_axis_km": 6737.90209636332,
      "eccentricity": 0.00011898,
      "inclination_deg": 53.1579,
      "raan_deg": 1.6081,
      "arg_perigee_deg": 60.0433,
      "mean_anomaly_deg": 300.0703,
      "mean_motion_rev_day": 15.696966
    },
    {
      "epoch": "2026-04-05T17:41:04.012800Z",
      "apogee_km": 360.50346822598385,
      "perigee_km": 359.0696380938725,
      "latitude_deg": 3.810508830152642e-05,
      "longitude_deg": -101.46355920707681,
      "height_km": 360.4934086321486,
      "semi_major_axis_km": 6737.923553159928,
      "eccentricity": 0.0001064,
      "inclination_deg": 53.1577,
      "raan_deg": 357.8413,
      "arg_perigee_deg": 73.2468,
      "mean_anomaly_deg": 286.8667,
      "mean_motion_rev_day": 15.69689102
    },
    {
      "epoch": "2026-04-06T02:51:09.916128Z",
      "apogee_km": 360.4578043806978,
      "perigee_km": 359.0503936879313,
      "latitude_deg": 3.582801995477717e-05,
      "longitude_deg": 118.75271216220078,
      "height_km": 360.48910386272394,
      "semi_major_axis_km": 6737.891099034314,
      "eccentricity": 0.00010444,
      "inclination_deg": 53.1579,
      "raan_deg": 355.9587,
      "arg_perigee_deg": 75.3027,
      "mean_anomaly_deg": 284.8107,
      "mean_motion_rev_day": 15.69700443
    },
    {
      "epoch": "2026-04-07T00:14:44.088000Z",
      "apogee_km": 360.3704275073178,
      "perigee_km": 359.08578614605176,
      "latitude_deg": 2.655581263138315e-05,
      "longitude_deg": 152.58804811234955,
      "height_km": 360.3690734752598,
      "semi_major_axis_km": 6737.8651068266845,
      "eccentricity": 9.533e-05,
      "inclination_deg": 53.1578,
      "raan_deg": 351.565,
      "arg_perigee_deg": 64.8709,
      "mean_anomaly_deg": 295.2408,
      "mean_motion_rev_day": 15.69709526
    },
    {
      "epoch": "2026-04-08T09:51:46.602720Z",
      "apogee_km": 360.4250923354475,
      "perigee_km": 359.0132419541842,
      "latitude_deg": 4.245542600779551e-05,
      "longitude_deg": 0.042961654622121634,
      "height_km": 360.40570880149636,
      "semi_major_axis_km": 6737.856167144815,
      "eccentricity": 0.00010477,
      "inclination_deg": 53.1593,
      "raan_deg": 344.661,
      "arg_perigee_deg": 71.2267,
      "mean_anomaly_deg": 288.8865,
      "mean_motion_rev_day": 15.6971265
    },
    {
      "epoch": "2026-04-09T19:28:49.045728Z",
      "apogee_km": 360.0404728944932,
      "perigee_km": 359.39902893180533,
      "latitude_deg": -4.195454768650958e-05,
      "longitude_deg": -152.5041999255915,
      "height_km": 360.6911427698813,
      "semi_major_axis_km": 6737.856750913149,
      "eccentricity": 4.76e-05,
      "inclination_deg": 53.1572,
      "raan_deg": 337.7547,
      "arg_perigee_deg": 100.2756,
      "mean_anomaly_deg": 259.8315,
      "mean_motion_rev_day": 15.69712446
    },
    {
      "epoch": "2026-04-10T01:35:33.181728Z",
      "apogee_km": 360.02285088150256,
      "perigee_km": 359.41401826443416,
      "latitude_deg": 3.7507201431033276e-05,
      "longitude_deg": 114.3055369721184,
      "height_km": 360.6953079254816,
      "semi_major_axis_km": 6737.855434572968,
      "eccentricity": 4.518e-05,
      "inclination_deg": 53.1583,
      "raan_deg": 336.4993,
      "arg_perigee_deg": 101.8574,
      "mean_anomaly_deg": 258.2495,
      "mean_motion_rev_day": 15.69712906
    },
    {
      "epoch": "2026-04-11T20:22:42.499200Z",
      "apogee_km": 360.30402476684594,
      "perigee_km": 359.22057055978075,
      "latitude_deg": 2.2526226886641814e-06,
      "longitude_deg": -178.0295710012767,
      "height_km": 360.6717112807657,
      "semi_major_axis_km": 6737.899297663313,
      "eccentricity": 8.04e-05,
      "inclination_deg": 53.1584,
      "raan_deg": 327.7102,
      "arg_perigee_deg": 89.5286,
      "mean_anomaly_deg": 270.5824,
      "mean_motion_rev_day": 15.69697578
    }
  ]
}